KUIPER-00259            
1 67786U 26030Y   26064.93176556  .00025416  00000+0  74730-3 0  9996
2 67786  51.8815 237.3775 0008331  39.0740 321.0846 15.34910041  4518
KUIPER-00260            
1 67787U 26030Z   26064.84759567  .00031303  00000+0  87820-3 0  9992
2 67787  51.8795 237.5679 0001059  54.1834 305.9251 15.36296961  4413
KUIPER-00262            
1 67788U 26030AA  26064.90902185  .00027801  00000+0  77359-3 0  9990
2 67788  51.8807 237.2337 0000317 122.7883 237.3134 15.36615016  4513
KUIPER-00266            
1 67789U 26030AB  26064.91009904  .00009911  00000+0  33618-3 0  9991
2 67789  51.8804 237.9666 0022561  62.4237 297.9035 15.30932881  4508
KUIPER-00268            
1 67790U 26030AC  26064.91794817  .00045953  00000+0  13005-2 0  9990
2 67790  51.8841 237.2975 0002536  37.4716 322.6446 15.35842504  4511
KUIPER-00270            
1 67791U 26030AD  26064.93731813  .00024789  00000+0  73865-3 0  9995
2 67791  51.8814 237.4126 0010213  45.9042 314.2783 15.34486989  4510
KUIPER-00274            
1 67792U 26030AE  26064.89935697 -.00037828  00000+0 -12315-2 0  9999
2 67792  51.8816 237.9052 0015940  63.7000 296.5619 15.31053736  4506
KUIPER-00275            
1 67793U 26030AF  26064.93467779  .00024023  00000+0  71487-3 0  9993
2 67793  51.8846 237.4047 0009010  42.9278 317.2409 15.34559702  4512
KUIPER-00276            
1 67794U 26030AG  26064.90323819 -.00020507  00000+0 -65460-3 0  9996
2 67794  51.8812 237.9285 0018815  56.7284 303.5500 15.31286386  4509
KUIPER-00279            
1 67795U 26030AH  26064.92766851  .00030920  00000+0  89677-3 0  9990
2 67795  51.8804 237.3499 0006624  36.2433 323.9001 15.35245594  4519
